[
    {
      "OBJECT_NAME": "ONEWEB-0461",
      "OBJECT_ID": "2022-012AD",
      "EPOCH": "2026-03-26T11:00:29.344608",
      "MEAN_MOTION": 13.17649319,
      "ECCENTRICITY": 0.00018468,
      "INCLINATION": 87.9187,
      "RA_OF_ASC_NODE": 22.2777,
      "ARG_OF_PERICENTER": 74.6643,
      "MEAN_ANOMALY": 285.4692,
      "EPHEMERIS_TYPE": 0,
      "CLASSIFICATION_TYPE": "U",
      "NORAD_CAT_ID": 51649,
      "ELEMENT_SET_NO": 999,
      "REV_AT_EPOCH": 20299,
      "BSTAR": 0.000032420426,
      "MEAN_MOTION_DOT": 2.5e-7,
      "MEAN_MOTION_DDOT": 0
    },
    {
      "OBJECT_NAME": "ONEWEB-0463",
      "OBJECT_ID": "2022-012AE",
      "EPOCH": "2026-03-26T08:44:24.026208",
      "MEAN_MOTION": 13.1765139,
      "ECCENTRICITY": 0.00018796,
      "INCLINATION": 87.9173,
      "RA_OF_ASC_NODE": 22.3273,
      "ARG_OF_PERICENTER": 74.1305,
      "MEAN_ANOMALY": 286.0034,
      "EPHEMERIS_TYPE": 0,
      "CLASSIFICATION_TYPE": "U",
      "NORAD_CAT_ID": 51650,
      "ELEMENT_SET_NO": 999,
      "REV_AT_EPOCH": 20276,
      "BSTAR": 0.00014642491,
      "MEAN_MOTION_DOT": 7e-7,
      "MEAN_MOTION_DDOT": 0
    },
    {
      "OBJECT_NAME": "ONEWEB-0464",
      "OBJECT_ID": "2022-012AF",
      "EPOCH": "2026-03-26T22:45:59.856480",
      "MEAN_MOTION": 13.10375697,
      "ECCENTRICITY": 0.00020066,
      "INCLINATION": 87.8805,
      "RA_OF_ASC_NODE": 52.6489,
      "ARG_OF_PERICENTER": 90.745,
      "MEAN_ANOMALY": 269.3907,
      "EPHEMERIS_TYPE": 0,
      "CLASSIFICATION_TYPE": "U",
      "NORAD_CAT_ID": 51651,
      "ELEMENT_SET_NO": 999,
      "REV_AT_EPOCH": 19855,
      "BSTAR": -0.000097873637,
      "MEAN_MOTION_DOT": -2.2e-7,
      "MEAN_MOTION_DDOT": 0
    },
    {
      "OBJECT_NAME": "ONEWEB-0468",
      "OBJECT_ID": "2022-012AG",
      "EPOCH": "2026-03-26T22:55:33.827232",
      "MEAN_MOTION": 13.10375425,
      "ECCENTRICITY": 0.00020593,
      "INCLINATION": 87.8805,
      "RA_OF_ASC_NODE": 52.6418,
      "ARG_OF_PERICENTER": 91.5487,
      "MEAN_ANOMALY": 268.5876,
      "EPHEMERIS_TYPE": 0,
      "CLASSIFICATION_TYPE": "U",
      "NORAD_CAT_ID": 51652,
      "ELEMENT_SET_NO": 999,
      "REV_AT_EPOCH": 19853,
      "BSTAR": 0.00061987786,
      "MEAN_MOTION_DOT": 0.00000229,
      "MEAN_MOTION_DDOT": 0
    },
    {
      "OBJECT_NAME": "ONEWEB-0473",
      "OBJECT_ID": "2022-012AH",
      "EPOCH": "2026-03-26T22:34:01.951104",
      "MEAN_MOTION": 13.10375657,
      "ECCENTRICITY": 0.00018524,
      "INCLINATION": 87.8802,
      "RA_OF_ASC_NODE": 52.6467,
      "ARG_OF_PERICENTER": 86.3043,
      "MEAN_ANOMALY": 273.8296,
      "EPHEMERIS_TYPE": 0,
      "CLASSIFICATION_TYPE": "U",
      "NORAD_CAT_ID": 51653,
      "ELEMENT_SET_NO": 999,
      "REV_AT_EPOCH": 19853,
      "BSTAR": -0.0013000503,
      "MEAN_MOTION_DOT": -0.00000441,
      "MEAN_MOTION_DDOT": 0
    },
    {
      "OBJECT_NAME": "ONEWEB-0474",
      "OBJECT_ID": "2022-012AJ",
      "EPOCH": "2026-03-26T22:22:04.744704",
      "MEAN_MOTION": 13.10372792,
      "ECCENTRICITY": 0.0002024,
      "INCLINATION": 87.8811,
      "RA_OF_ASC_NODE": 52.6248,
      "ARG_OF_PERICENTER": 90.5063,
      "MEAN_ANOMALY": 269.6296,
      "EPHEMERIS_TYPE": 0,
      "CLASSIFICATION_TYPE": "U",
      "NORAD_CAT_ID": 51654,
      "ELEMENT_SET_NO": 999,
      "REV_AT_EPOCH": 19852,
      "BSTAR": -0.0017507978,
      "MEAN_MOTION_DOT": -0.00000598,
      "MEAN_MOTION_DDOT": 0
    },
    {
      "OBJECT_NAME": "ONEWEB-0475",
      "OBJECT_ID": "2022-012AK",
      "EPOCH": "2026-03-26T09:01:24.434400",
      "MEAN_MOTION": 13.17651496,
      "ECCENTRICITY": 0.00018714,
      "INCLINATION": 87.9175,
      "RA_OF_ASC_NODE": 22.3167,
      "ARG_OF_PERICENTER": 100.1554,
      "MEAN_ANOMALY": 259.9789,
      "EPHEMERIS_TYPE": 0,
      "CLASSIFICATION_TYPE": "U",
      "NORAD_CAT_ID": 51655,
      "ELEMENT_SET_NO": 999,
      "REV_AT_EPOCH": 20278,
      "BSTAR": -0.000034697941,
      "MEAN_MOTION_DOT": -1e-8,
      "MEAN_MOTION_DDOT": 0
    },
    {
      "OBJECT_NAME": "ONEWEB-0490",
      "OBJECT_ID": "2022-138A",
      "EPOCH": "2026-03-26T02:45:52.700256",
      "MEAN_MOTION": 13.19726277,
      "ECCENTRICITY": 0.00018825,
      "INCLINATION": 87.9204,
      "RA_OF_ASC_NODE": 321.5235,
      "ARG_OF_PERICENTER": 85.9445,
      "MEAN_ANOMALY": 274.1902,
      "EPHEMERIS_TYPE": 0,
      "CLASSIFICATION_TYPE": "U",
      "NORAD_CAT_ID": 54113,
      "ELEMENT_SET_NO": 999,
      "REV_AT_EPOCH": 16587,
      "BSTAR": -0.000012202338,
      "MEAN_MOTION_DOT": 8e-8,
      "MEAN_MOTION_DDOT": 0
    },
    {
      "OBJECT_NAME": "ONEWEB-0492",
      "OBJECT_ID": "2022-138B",
      "EPOCH": "2026-03-26T14:17:19.953312",
      "MEAN_MOTION": 13.19725684,
      "ECCENTRICITY": 0.00019488,
      "INCLINATION": 87.92,
      "RA_OF_ASC_NODE": 321.4348,
      "ARG_OF_PERICENTER": 81.6246,
      "MEAN_ANOMALY": 278.5108,
      "EPHEMERIS_TYPE": 0,
      "CLASSIFICATION_TYPE": "U",
      "NORAD_CAT_ID": 54114,
      "ELEMENT_SET_NO": 999,
      "REV_AT_EPOCH": 16594,
      "BSTAR": 0.0002548147,
      "MEAN_MOTION_DOT": 0.00000115,
      "MEAN_MOTION_DDOT": 0
    },
    {
      "OBJECT_NAME": "ONEWEB-0495",
      "OBJECT_ID": "2022-138C",
      "EPOCH": "2026-03-26T08:17:56.942016",
      "MEAN_MOTION": 13.19726213,
      "ECCENTRICITY": 0.00023153,
      "INCLINATION": 87.9198,
      "RA_OF_ASC_NODE": 321.4863,
      "ARG_OF_PERICENTER": 94.5222,
      "MEAN_ANOMALY": 265.6175,
      "EPHEMERIS_TYPE": 0,
      "CLASSIFICATION_TYPE": "U",
      "NORAD_CAT_ID": 54115,
      "ELEMENT_SET_NO": 999,
      "REV_AT_EPOCH": 16589,
      "BSTAR": 0.000087945642,
      "MEAN_MOTION_DOT": 4.8e-7,
      "MEAN_MOTION_DDOT": 0
    },
    {
      "OBJECT_NAME": "ONEWEB-0497",
      "OBJECT_ID": "2022-138D",
      "EPOCH": "2026-03-26T08:36:09.208224",
      "MEAN_MOTION": 13.19726454,
      "ECCENTRICITY": 0.00017889,
      "INCLINATION": 87.9198,
      "RA_OF_ASC_NODE": 321.4744,
      "ARG_OF_PERICENTER": 83.4324,
      "MEAN_ANOMALY": 276.7012,
      "EPHEMERIS_TYPE": 0,
      "CLASSIFICATION_TYPE": "U",
      "NORAD_CAT_ID": 54116,
      "ELEMENT_SET_NO": 999,
      "REV_AT_EPOCH": 16588,
      "BSTAR": 0.00022200693,
      "MEAN_MOTION_DOT": 0.00000102,
      "MEAN_MOTION_DDOT": 0
    },
    {
      "OBJECT_NAME": "ONEWEB-0499",
      "OBJECT_ID": "2022-138E",
      "EPOCH": "2026-03-26T10:01:25.514688",
      "MEAN_MOTION": 13.19726923,
      "ECCENTRICITY": 0.00017084,
      "INCLINATION": 87.9204,
      "RA_OF_ASC_NODE": 321.4729,
      "ARG_OF_PERICENTER": 89.9874,
      "MEAN_ANOMALY": 270.1454,
      "EPHEMERIS_TYPE": 0,
      "CLASSIFICATION_TYPE": "U",
      "NORAD_CAT_ID": 54117,
      "ELEMENT_SET_NO": 999,
      "REV_AT_EPOCH": 16590,
      "BSTAR": -0.000063966969,
      "MEAN_MOTION_DOT": -1.3e-7,
      "MEAN_MOTION_DDOT": 0
    },
    {
      "OBJECT_NAME": "ONEWEB-0500",
      "OBJECT_ID": "2022-138F",
      "EPOCH": "2026-03-26T02:48:08.936640",
      "MEAN_MOTION": 13.19726109,
      "ECCENTRICITY": 0.00017351,
      "INCLINATION": 87.9201,
      "RA_OF_ASC_NODE": 321.5221,
      "ARG_OF_PERICENTER": 79.4055,
      "MEAN_ANOMALY": 280.7273,
      "EPHEMERIS_TYPE": 0,
      "CLASSIFICATION_TYPE": "U",
      "NORAD_CAT_ID": 54118,
      "ELEMENT_SET_NO": 999,
      "REV_AT_EPOCH": 16587,
      "BSTAR": 0.000052855164,
      "MEAN_MOTION_DOT": 3.4e-7,
      "MEAN_MOTION_DDOT": 0
    }
  ]
