ONEWEB-0461             
1 51649U 22012AD  26085.45867297  .00000025  00000+0  32420-4 0  9992
2 51649  87.9187  22.2777 0001846  74.6643 285.4692 13.17649319202995
ONEWEB-0463             
1 51650U 22012AE  26085.36416697  .00000070  00000+0  14642-3 0  9993
2 51650  87.9173  22.3273 0001879  74.1305 286.0034 13.17651390202764
ONEWEB-0464             
1 51651U 22012AF  26085.94860945 -.00000022  00000+0 -97874-4 0  9995
2 51651  87.8805  52.6489 0002006  90.7450 269.3907 13.10375697198559
ONEWEB-0468             
1 51652U 22012AG  26085.95525263  .00000229  00000+0  61988-3 0  9991
2 51652  87.8805  52.6418 0002059  91.5487 268.5876 13.10375425198532
ONEWEB-0473             
1 51653U 22012AH  26085.94030036 -.00000441  00000+0 -13001-2 0  9990
2 51653  87.8802  52.6467 0001852  86.3043 273.8296 13.10375657198536
ONEWEB-0474             
1 51654U 22012AJ  26085.93199936 -.00000598  00000+0 -17508-2 0  9994
2 51654  87.8811  52.6248 0002024  90.5063 269.6296 13.10372792198524
ONEWEB-0475             
1 51655U 22012AK  26085.37597725 -.00000001  00000+0 -34698-4 0  9991
2 51655  87.9175  22.3167 0001871 100.1554 259.9789 13.17651496202786
ONEWEB-0490             
1 54113U 22138A   26085.11519329  .00000008  00000+0 -12202-4 0  9991
2 54113  87.9204 321.5235 0001882  85.9445 274.1902 13.19726277165878
ONEWEB-0492             
1 54114U 22138B   26085.59536983  .00000115  00000+0  25481-3 0  9999
2 54114  87.9200 321.4348 0001948  81.6246 278.5108 13.19725684165949
ONEWEB-0495             
1 54115U 22138C   26085.34579794  .00000048  00000+0  87946-4 0  9990
2 54115  87.9198 321.4863 0002315  94.5222 265.6175 13.19726213165898
ONEWEB-0497             
1 54116U 22138D   26085.35843991  .00000102  00000+0  22201-3 0  9998
2 54116  87.9198 321.4744 0001788  83.4324 276.7012 13.19726454165889
ONEWEB-0499             
1 54117U 22138E   26085.41765642 -.00000013  00000+0 -63967-4 0  9990
2 54117  87.9204 321.4729 0001708  89.9874 270.1454 13.19726923165906
ONEWEB-0500             
1 54118U 22138F   26085.11677010  .00000034  00000+0  52855-4 0  9994
2 54118  87.9201 321.5221 0001735  79.4055 280.7273 13.19726109165875
